# From MPC114605
P/2019 A6 (Lemmon-PANSTARRS),e,33.2763,280.1840,156.2024,5.357405,0.0794827,0.64005872,142.4705,07/28.0/2023,2000,g 16.0,4.0
# From MPC115884
P/2019 A8 (PANSTARRS),e,2.1821,113.7957,65.7262,4.309855,0.1101565,0.23290056,205.4049,07/28.0/2023,2000,g 16.0,4.0
# From MPC118842
C/2019 A9 (PANSTARRS),e,84.2832,278.4194,237.9155,39.13604,0.0040257,0.96344746,5.8896,07/28.0/2023,2000,g 15.0,4.0
# From MPEC 2022-L66
C/2019 B1 (Africano),e,123.4267,290.3506,174.7665,137.3119,0.0006126,0.98835737,0.0000,03/18.4534/2019,2000,g 16.0,4.0
# From MPC115885
P/2019 B2 (Groeller),e,16.9973,175.7441,0.9446,3.917390,0.1271185,0.35941660,193.7288,07/28.0/2023,2000,g 14.5,4.0
# From MPEC 2023-HD1
C/2019 B3 (PANSTARRS),e,66.5409,358.4311,263.9704,17581,0.0000004,0.99961174,0.0000,01/20.2829/2021,2000,g  9.4,4.0
# From MPEC 2021-P47
C/2019 C1 (ATLAS),e,36.0519,212.3927,319.0589,643.5862,0.0000604,0.98978399,0.0000,05/04.1872/2020,2000,g 10.0,4.0
# From MPEC 2022-O08
C/2019 D1 (Flewelling),e,34.0030,231.6548,70.7011,141.8728,0.0005833,0.98881383,0.0000,05/10.9467/2019,2000,g 13.0,4.0
# From MPEC 2023-KD6
C/2019 E3 (ATLAS),e,84.2975,347.2414,280.6913,14165,0.0000006,0.99927191,0.0000,11/15.0951/2023,2000,g  2.5,4.0
# From MPEC 2023-CD7
C/2019 F1 (ATLAS-Africano),h,06/22.8198/2021,54.2347,38.6641,251.3239,1.002592,3.604242,2000,5.5,4.0
# From MPEC 2021-P47
C/2019 F2 (ATLAS),e,19.2830,175.4326,11.6408,16.61343,0.0145551,0.86478593,20.6583,07/28.0/2023,2000,g 12.0,4.0
# From MPEC 2021-P47
A/2019 G2,e,159.2149,208.1618,82.6072,427.6374,0.0001115,0.99463451,0.0000,12/08.3059/2019,2000,g 16.5,2.0
# From MPEC 2022-VC5
A/2019 G3,e,156.8056,49.9034,161.8988,17.19780,0.0138196,0.83449571,23.4444,07/28.0/2023,2000,g 17.1,2.0
# From MPEC 2022-P82
C/2019 G4 (PANSTARRS),h,09/15.5838/2018,138.3449,130.4471,287.7431,1.001522,5.847076,2000,9.5,4.0
# From MPC114607
P/2019 GG21 (PANSTARRS),e,6.0866,340.5548,208.5998,7.468825,0.0482865,0.47181233,74.3629,07/28.0/2023,2000,g 12.0,4.0
# From MPEC 2022-M21
C/2019 H1 (NEOWISE),e,104.4384,269.2782,19.3310,245.6370,0.0002560,0.99249134,0.0000,04/27.9392/2019,2000,g 15.5,4.0
# From MPEC 2023-A50
C/2019 J1 (Lemmon),e,24.5381,98.1703,167.7285,68.16799,0.0017512,0.96354004,2.7537,07/28.0/2023,2000,g 12.0,4.0
# From MPEC 2021-R75
C/2019 J2 (Palomar),e,105.2349,25.5631,98.6775,162.0831,0.0004776,0.98938433,0.0000,07/20.5147/2019,2000,g 13.0,4.0
# From MPC117071
C/2019 J3 (ATLAS),h,08/02.4567/2019,131.3430,270.6133,16.6009,1.000597,2.370041,2000,13.5,4.0
# From MPEC 2022-M21
C/2019 JU6 (ATLAS),h,06/02.0483/2019,148.3320,21.7670,94.9857,1.000072,2.043217,2000,14.5,4.0
# From MPEC 2022-O08
C/2019 K1 (ATLAS),e,87.0452,73.3318,265.7272,8873,0.0000012,0.99977297,0.0000,02/12.5925/2020,2000,g 10.0,4.0
# From MPC119997
C/2019 K4 (Ye),e,105.2971,180.1563,139.8996,1403,0.0000188,0.99838212,0.0000,06/15.5281/2019,2000,g 12.5,4.0
# From MPEC 2021-P47
C/2019 K5 (Young),e,15.3172,177.1372,175.1538,168.7993,0.0004494,0.98789337,0.0000,06/22.9279/2019,2000,g 13.0,4.0
# From MPEC 2021-P47
C/2019 K6 (PANSTARRS),e,132.3804,42.9989,187.5731,1462,0.0000176,0.99731665,0.0000,05/19.9127/2020,2000,g 11.5,4.0
# From MPEC 2023-M14
C/2019 K7 (Smith),h,06/17.6419/2020,103.5276,307.9729,27.4074,1.000973,4.478421,2000,6.0,4.0
# From MPEC 2021-R75
C/2019 K8 (ATLAS),e,93.1286,291.0240,85.3775,2575,0.0000075,0.99875997,0.0000,07/21.7204/2019,2000,g 11.5,4.0
# From MPEC 2023-A50
C/2019 L1 (PANSTARRS),e,9.9784,254.4299,50.0566,9.839211,0.0319348,0.70523166,46.2291,07/28.0/2023,2000,g 13.5,4.0
# From MPC115886
C/2019 L2 (NEOWISE),e,152.2097,12.5490,18.8502,25.05211,0.0078603,0.93508550,12.4029,07/28.0/2023,2000,g 16.0,4.0
# From MPEC 2023-HD1
P/2019 LD2 (ATLAS),e,11.6169,179.5634,119.5258,5.214414,0.0827744,0.12660440,102.9220,07/28.0/2023,2000,g 12.0,4.0
# From MPEC 2023-O39
C/2019 L3 (ATLAS),h,01/09.6925/2022,48.3478,290.7710,171.6279,1.002195,3.554491,2000,4.5,4.0
# From MPC118095
C/2019 LB7 (Kleyna),e,164.2912,3.8919,336.5944,34.71767,0.0048181,0.92820566,7.6354,07/28.0/2023,2000,g 17.0,4.0
# From MPEC 2022-O08
P/2019 M2 (ATLAS),e,12.2695,307.6158,332.5451,3.029052,0.1869580,0.64736379,279.9527,07/28.0/2023,2000,g 21.2,4.0
# From MPC118095
C/2019 M3 (ATLAS),e,99.5252,154.9387,87.9000,5943,0.0000022,0.99959232,0.0000,12/31.7763/2018,2000,g 12.2,4.0
# From MPEC 2023-JA2
C/2019 M4 (TESS),h,09/12.3283/2019,65.6815,52.6465,260.3742,1.003614,9.188412,2000,5.0,4.0
# From MPEC 2023-C45
C/2019 N1 (ATLAS),e,82.4326,13.5713,193.4092,1484,0.0000172,0.99885058,0.0000,12/01.2079/2020,2000,g  7.5,4.0
# From MPEC 2023-CD8
A/2019 N2,e,89.3780,276.1372,347.1899,1597,0.0000154,0.99878053,0.0000,08/22.7337/2019,2000,g 12.5,2.0
# From MPEC 2022-A21
C/2019 NJ3 (Lemmon),h,10/22.9755/2020,99.4118,142.4730,246.9135,1.002554,4.362783,2000,9.0,4.0
# From MPEC 2023-N01
A/2019 O2,e,93.3099,48.2600,129.6320,58.01387,0.0022305,0.83309567,0.2497,07/28.0/2023,2000,g  9.5,2.0
# From MPEC 2023-O39
C/2019 O3 (Palomar),h,03/09.6467/2021,89.8174,300.4272,60.1319,1.004421,8.821199,2000,3.5,4.0
# From MPEC 2021-P47
A/2019 O4,e,115.0851,354.9104,61.9057,33.31782,0.0051249,0.89057295,6.4729,07/28.0/2023,2000,g 15.5,2.0
# From MPEC 2023-A50
C/2019 Q1 (Lemmon),h,07/20.8628/2020,155.7305,42.4581,56.2071,1.000963,5.003612,2000,8.5,4.0
# From MPC117072
A/2019 Q2,e,159.0273,188.0149,176.4078,58.00087,0.0022313,0.97821906,0.0000,07/22.1702/2019,2000,g 18.0,2.0
# From MPC117072
C/2019 Q3 (PANSTARRS),h,08/21.2584/2018,65.5430,151.3460,152.8006,1.002418,7.267546,2000,8.5,4.0
# From MPC117072
P/2019 S2 (PANSTARRS),e,10.4651,93.1377,217.1608,4.743359,0.0954059,0.20554358,154.3146,07/28.0/2023,2000,g 13.5,4.0
# From MPEC 2022-CN4
P/2019 S3 (PANSTARRS),e,8.6923,150.1474,213.0672,3.415332,0.1561546,0.47116136,223.4011,07/28.0/2023,2000,g 18.3,4.0
# From MPEC 2021-S45
C/2019 S4 (Lemmon),e,92.0890,63.1485,71.3786,235.7255,0.0002723,0.98539692,0.0000,04/08.1410/2020,2000,g 11.0,4.0
# From MPEC 2023-N01
A/2019 T1,e,120.8742,6.9450,91.0698,38.78605,0.0040803,0.88962237,3.7707,07/28.0/2023,2000,g 13.0,2.0
# From MPEC 2023-N01
C/2019 T2 (Lemmon),e,111.4676,155.6516,239.4318,4519,0.0000032,0.99941447,0.0000,04/22.5704/2021,2000,g  9.0,4.0
# From MPEC 2023-O39
C/2019 T3 (ATLAS),e,121.8397,139.5324,112.4540,3547,0.0000047,0.99832214,0.0000,03/04.3126/2021,2000,g  6.8,4.0
# From MPEC 2023-O39
C/2019 T4 (ATLAS),e,53.6320,199.9391,351.1616,938.7178,0.0000343,0.99548140,0.0000,06/08.8929/2022,2000,g  5.0,4.0
# From MPEC 2021-P47
P/2019 T5 (ATLAS),e,33.4964,247.6207,189.5694,7.998097,0.0435737,0.80960396,63.4437,07/28.0/2023,2000,g 15.0,4.0
# From MPEC 2021-P47
P/2019 T6 (PANSTARRS),e,18.7037,71.2147,329.0144,5.438270,0.0777164,0.62307799,105.4848,07/28.0/2023,2000,g 15.5,4.0
# From MPC118096
P/2019 U4 (PANSTARRS),e,11.7008,200.0009,181.0377,3.520082,0.1492364,0.47602815,210.0120,07/28.0/2023,2000,g 19.0,4.0
# From MPEC 2023-O39
C/2019 U5 (PANSTARRS),h,03/29.8105/2023,113.5189,2.6371,181.4890,1.001371,3.624158,2000,4.5,4.0
# From MPEC 2022-H04
C/2019 U6 (Lemmon),e,60.9737,235.7716,329.5572,334.2383,0.0001613,0.99726854,0.0000,06/18.3739/2020,2000,g 10.0,4.0
# From MPEC 2022-N37
C/2019 V1 (Borisov),e,61.9149,83.1643,51.1607,1547,0.0000162,0.99799989,0.0000,07/16.4692/2020,2000,g 11.0,4.0
# From MPEC 2022-L66
P/2019 V2 (Groeller),e,11.8082,189.1842,335.7258,7.498490,0.0480002,0.33113503,48.6629,07/28.0/2023,2000,g 10.0,4.0
# From MPEC 2023-A50
P/2019 W1 (PANSTARRS),e,23.4757,35.3767,18.7379,4.549047,0.1015836,0.26717246,156.5006,07/28.0/2023,2000,g 12.9,4.0
# From MPEC 2021-P47
P/2019 X1 (Pruyne),e,10.2505,43.6639,36.8144,6.174437,0.0642404,0.30373959,94.2209,07/28.0/2023,2000,g 10.4,4.0
# From MPC119999
C/2019 Y1 (ATLAS),e,73.3611,31.5584,57.9070,86.68366,0.0012212,0.99044086,0.0000,03/16.1315/2020,2000,g 13.7,4.0
# From MPEC 2022-YN2
C/2019 Y4 (ATLAS),e,45.1979,120.6701,177.4525,353.3468,0.0001484,0.99927725,0.0000,05/30.8310/2020,2000,g 11.8,6.0
# From MPEC 2020-L06
C/2019 Y4-A (ATLAS),h,05/30.8592/2020,45.6402,121.0319,177.2862,1.001419,0.253534,2000,11.6,6.0
# From MPEC 2023-J29
C/2019 Y4-B (ATLAS),h,05/30.8364/2020,45.3286,120.7762,177.3965,1.000020,0.254847,2000,12.1,6.0
# From MPEC 2020-L06
C/2019 Y4-C (ATLAS),h,05/30.8131/2020,45.4226,120.7585,177.3195,1.002144,0.254603,2000,12.7,6.0
# From MPEC 2020-L06
C/2019 Y4-D (ATLAS),e,45.4679,121.1319,177.4576,68.41196,0.0017418,0.99628823,0.0000,05/30.9376/2020,2000,g 12.5,6.0
# From MPEC 2023-A50
C/2019 Y5 (PANSTARRS),e,82.7660,51.7546,303.5688,746.7377,0.0000483,0.99341016,0.0000,08/17.8541/2019,2000,g 11.0,4.0
# From MPEC 2023-A50
A/2020 A1,e,149.0366,119.1944,302.4956,25.62799,0.0075968,0.93497325,10.1328,07/28.0/2023,2000,g 18.0,2.0
# From MPEC 2022-YN2
C/2020 A2 (NEOWISE),e,120.6198,286.2911,68.0817,1373,0.0000194,0.99929044,0.0000,01/08.4915/2020,2000,g 13.5,4.0
# From MPEC 2023-A50
C/2020 A3 (ATLAS),h,06/29.0386/2019,146.6651,120.8048,268.3615,1.000773,5.759474,2000,8.0,4.0
# From MPEC 2022-P91
P/2020 A4 (PANSTARRS-Lemmon),e,24.9913,312.3682,144.7742,8.194150,0.0420192,0.65406173,56.4293,07/28.0/2023,2000,g 15.0,4.0
# From MPEC 2020-N08
A/2020 B1,e,18.5211,309.9371,154.7332,51.43865,0.0026716,0.96616638,3.4986,07/28.0/2023,2000,g 21.0,2.0
# From MPEC 2022-N37
C/2020 B3 (Rankin),e,20.7094,185.8447,324.9019,939.3433,0.0000342,0.99644907,0.0000,10/19.4795/2019,2000,g 13.0,4.0
# From MPEC 2023-KD6
P/2020 B4 (Sheppard),e,11.6091,185.9788,342.0516,7.966596,0.0438324,0.19184620,27.0005,07/28.0/2023,2000,g 10.5,4.0
# From MPEC 2023-O39
C/2020 F2 (ATLAS),h,07/14.7286/2022,163.5887,250.2928,48.3225,1.005325,8.816421,2000,4.5,4.0
# From MPEC 2021-O56
C/2020 F3 (NEOWISE),e,129.1323,61.0843,37.3713,362.2631,0.0001429,0.99918355,0.0000,07/03.7780/2020,2000,g  7.5,5.2
# From MPEC 2023-O39
C/2020 F5 (MASTER),e,52.2052,350.4993,310.6811,175.6604,0.0004233,0.97537885,0.0000,03/17.4507/2021,2000,g  6.5,3.2
# From MPEC 2020-L06
C/2020 F6 (PANSTARRS),e,174.5830,207.9071,344.5355,396.9780,0.0001246,0.99117171,0.0000,04/11.6737/2020,2000,g 14.5,2.8
